SCD 1                   
1 22490U 93009B   19138.94087865  .00000230  00000-0  12919-4 0  9998
2 22490  24.9702 308.2152 0043005 172.3772 323.4653 14.44550700387032
TECHSAT 1B (GO-32)      
1 25397U 98043D   19138.83644950 -.00000020  00000-0  10320-4 0  9994
2 25397  98.6871  79.3578 0002296 108.2471 251.8958 14.23665271 83486
SCD 2                   
1 25504U 98060A   19139.40560706  .00000217  00000-0  10280-4 0  9995
2 25504  24.9942 152.9115 0017102 200.8226 297.1863 14.44068499 86406
LANDSAT 7               
1 25682U 99020A   19139.78268509  .00000016  00000-0  13377-4 0  9993
2 25682  98.1292 207.8895 0001397  60.7484 299.3850 14.57154427 68767
DLR-TUBSAT              
1 25757U 99029B   19139.82887591 -.00000013  00000-0  81500-5 0  9990
2 25757  98.4127  61.8607 0013624 318.0313  41.9837 14.51402028 58240
TERRA                   
1 25994U 99068A   19139.80157221  .00000078  00000-0  27295-4 0  9994
2 25994  98.2053 214.7789 0001369 102.2923 257.8413 14.57114797 32847
MAROC-TUBSAT            
1 27004U 01056D   19138.23855420 -.00000046  00000-0 -24458-5 0  9996
2 27004  99.4590 272.3877 0019267 322.9845 154.4973 13.70134684871911
AQUA                    
1 27424U 02022A   19139.90413510  .00000064  00000-0  24157-4 0  9994
2 27424  98.2017  81.2020 0002760 114.6533 321.7642 14.57121467906467
IRS-P6 (RESOURCESAT-1)  
1 28051U 03046A   19139.82315059  .00000003  00000-0  16113-4 0  9994
2 28051  98.5179 217.8986 0059037 116.3148 244.4113 14.34151032809826
SHIYAN 1 (SY-1)         
1 28220U 04012A   19139.49063563  .00000179  00000-0  19382-4 0  9994
2 28220  97.7923 101.6948 0009101 277.7661  82.2528 14.99793569821526
FORMOSAT-2 (ROCSAT 2)   
1 28254U 04018A   19132.70283179  .00000309  00000-0  23556-3 0  9993
2 28254  98.7700 178.4685 0001470  42.2583 318.2155 14.00697688765821
AURA                    
1 28376U 04026A   19139.48309278  .00000061  00000-0  23678-4 0  9999
2 28376  98.2011  82.9480 0001631  89.4867 270.6519 14.57118563789446
IRS-P5 (CARTOSAT-1)     
1 28649U 05017A   19139.76885886  .00000068  00000-0  14629-4 0  9991
2 28649  97.8556 210.9451 0000848  15.8969 344.2267 14.83637325759990
SINAH 1                 
1 28893U 05043D   19139.85418738 -.00000018  00000-0  55181-5 0  9994
2 28893  97.9690 278.3030 0016667 102.6323 257.6744 14.61503735722942
EROS B                  
1 29079U 06014A   19139.83826594  .00002040  00000-0  87659-4 0  9991
2 29079  97.4160 258.9949 0001654 216.8696 261.2678 15.23812418725153
RESURS-DK 1             
1 29228U 06021A   19138.95888864  .00000035  00000-0  99800-5 0  9999
2 29228  69.9345 114.7394 0006077 317.3928  42.6761 15.02435980713344
ARIRANG-2 (KOMPSAT-2)   
1 29268U 06031A   19139.86598132  .00000050  00000-0  19020-4 0  9993
2 29268  98.0351  32.8807 0017283 324.5001  35.5054 14.62428428683548
LAPAN-TUBSAT            
1 29709U 07001A   19139.84752458  .00000043  00000-0  11876-4 0  9995
2 29709  97.8039 102.8353 0012271 326.1119  33.9310 14.82174575667915
CARTOSAT-2 (IRS-P7)     
1 29710U 07001B   19139.77729486 -.00000109  00000-0 -78559-5 0  9991
2 29710  97.9750 199.1008 0001619  85.9047 274.2325 14.78658658666872
HAIYANG-1B              
1 31113U 07010A   19139.84343206 -.00000003  00000-0  15484-4 0  9990
2 31113  98.4567 189.4857 0012664 300.1615  59.8312 14.30221007631757
COSMO-SKYMED 1          
1 31598U 07023A   19139.81109926  .00000262  00000-0  39476-4 0  9990
2 31598  97.8910 323.6097 0001595  88.2953 271.8448 14.82154005646377
TERRASAR-X              
1 31698U 07026A   19139.01856792 -.00000753  00000-0 -32681-4 0  9994
2 31698  97.4440 146.6733 0002033  68.9168   1.8940 15.19143338661275
WORLDVIEW-1 (WV-1)      
1 32060U 07041A   19139.41355052  .00000673  00000-0  30384-4 0  9999
2 32060  97.3864 259.4845 0001213  79.7132 280.4242 15.24353742649088
YAOGAN 3                
1 32289U 07055A   19139.86579075  .00000299  00000-0  45562-4 0  9997
2 32289  98.0032 150.5940 0001420 107.3704 252.7667 14.80958230622589
COSMO-SKYMED 2          
1 32376U 07059A   19139.77735167 -.00000178  00000-0 -15815-4 0  9990
2 32376  97.8915 323.5769 0001457  78.2719 281.8659 14.82154975619111
RADARSAT-2              
1 32382U 07061A   19139.84959583  .00000112  00000-0  60472-4 0  9993
2 32382  98.5748 147.1973 0001308  89.7609  32.5519 14.29984689596571
CARTOSAT-2A             
1 32783U 08021A   19139.82349601  .00000299  00000-0  47971-4 0  9992
2 32783  97.9745 199.5137 0012522 199.0326 161.0388 14.78645955596824
JASON-2 (OSTM)          
1 33105U 08032A   19138.90129021 -.00000081  00000-0 -72854-4 0  9992
2 33105  66.0411  88.8707 0008429 272.6207 160.6097 12.87632259510807
RAPIDEYE 2              
1 33312U 08040A   19139.85196000 -.00001402  00000-0 -17062-3 0  9994
2 33312  97.7450 209.5920 0011053 229.5475 130.4783 14.81890506579152
RAPIDEYE 5              
1 33313U 08040B   19139.80780232  .00000782  00000-0  10507-3 0  9991
2 33313  97.7543 208.3727 0017193 101.1733 259.1128 14.81903241579097
RAPIDEYE 1              
1 33314U 08040C   19139.86381479  .00067216  00000-0  83748-2 0  9999
2 33314  97.7495 209.3588 0023489 239.7000 120.1556 14.81930001579142
RAPIDEYE 3              
1 33315U 08040D   19139.83219622  .00003972  00000-0  50783-3 0  9990
2 33315  97.7538 208.2838 0010234 181.7039 178.3633 14.81894707579108
RAPIDEYE 4              
1 33316U 08040E   19139.68490076  .00008570  00000-0  10871-2 0  9990
2 33316  97.7588 207.9894 0010589 121.0305 239.1054 14.81902878579076
HUANJING 1A (HJ-1A)     
1 33320U 08041A   19139.79561821  .00000111  00000-0  22842-4 0  9991
2 33320  97.8403 199.0393 0024208 277.3803  82.4652 14.77015681576346
HUANJING 1B (HJ-1B)     
1 33321U 08041B   19139.82638581  .00000168  00000-0  30823-4 0  9994
2 33321  97.8476 200.9116 0033355 297.0864  62.6933 14.77128378576341
GEOEYE 1                
1 33331U 08042A   19139.78790194 -.00000005  00000-0  80851-5 0  9998
2 33331  98.0978 214.7861 0008536 213.2979 146.7666 14.64390106571777
THEOS                   
1 33396U 08049A   19139.88864005  .00000251  00000-0  13855-3 0  9990
2 33396  98.6863 207.4416 0001066  88.7683  24.9240 14.20048517551063
COSMO-SKYMED 3          
1 33412U 08054A   19139.76470670  .00001432  00000-0  18639-3 0  9990
2 33412  97.8907 323.5625 0001456  86.5501 273.5870 14.82160749571571
YAOGAN 4                
1 33446U 08061A   19139.85548446  .00000064  00000-0  15895-4 0  9994
2 33446  97.6722 108.4624 0016164 175.8546 184.2801 14.76951762563583
GOSAT (IBUKI)           
1 33492U 09002A   19139.82498209  .00000122  00000-0  29843-4 0  9992
2 33492  98.0307 252.7413 0001147 100.7849 259.3485 14.67568318552733
YAOGAN 6                
1 34839U 09021A   19139.83361632  .00000457  00000-0  19907-4 0  9990
2 34839  97.0564 165.3542 0027710 350.7981   9.2747 15.26550403559601
DEIMOS-1                
1 35681U 09041A   19139.84130800  .00000022  00000-0  11063-4 0  9993
2 35681  97.8673  22.7042 0000639 167.4268 192.6958 14.71785089526344
DUBAISAT-1              
1 35682U 09041B   19139.62241009 -.00000080  00000-0 -59877-5 0  9996
2 35682  97.7311 334.6413 0012811  69.2824 290.9728 14.68730915525162
OCEANSAT-2              
1 35931U 09051A   19139.48001899  .00000060  00000-0  26280-4 0  9996
2 35931  98.2990 235.0010 0002150 146.4680 213.6651 14.50836807511146
WORLDVIEW-2 (WV-2)      
1 35946U 09055A   19139.79218384  .00000002  00000-0  15200-4 0  9995
2 35946  98.4356 216.0162 0002860  91.6304 268.5191 14.37612677504310
SMOS                    
1 36036U 09059A   19138.60848098  .00000023  00000-0  21108-4 0  9997
2 36036  98.4448 326.3094 0001269  88.5189 271.6144 14.39750602501403
YAOGAN 7                
1 36110U 09069A   19139.84356634  .00000104  00000-0  23425-4 0  9992
2 36110  98.2704 322.0130 0025152  38.0013 322.2968 14.75114795508328
TANDEM-X                
1 36605U 10030A   19139.68460568 -.00000626  00000-0 -26624-4 0  9990
2 36605  97.4457 147.3299 0002067  85.6064  25.4165 15.19144685494113
CARTOSAT-2B             
1 36795U 10035A   19139.79237296  .00000044  00000-0  13195-4 0  9998
2 36795  97.9721 199.1323 0013201 282.1557  77.8169 14.78660737477861
YAOGAN 10               
1 36834U 10038A   19139.83622021  .00000084  00000-0  17685-4 0  9996
2 36834  97.9664 140.3214 0001363  87.2608 272.8761 14.80916072474327
COSMO-SKYMED 4          
1 37216U 10060A   19139.65723408 -.00000153  00000-0 -12480-4 0  9994
2 37216  97.8889 323.4600 0001597  89.6413 270.4913 14.82545119461648
RESOURCESAT-2           
1 37387U 11015A   19139.86772291  .00000029  00000-0  33083-4 0  9993
2 37387  98.7153 215.3286 0005329  84.3329 275.8450 14.21624321419379
HAIYANG 2A              
1 37781U 11043A   19139.03177935 -.00000044  00000-0  31190-7 0  9993
2 37781  99.3181 148.5150 0000545  48.0600 312.0628 13.78720938390557
RASAT                   
1 37791U 11044D   19139.80187429  .00000040  00000-0  16460-4 0  9994
2 37791  98.1161 233.0631 0023298  73.5321 286.8438 14.64718084414470
MEGHA-TROPIQUES         
1 37838U 11058A   19138.67318934  .00000296  00000-0  18256-4 0  9990
2 37838  19.9772 239.9230 0009362 183.4590 176.5750 14.09654843392069
SRMSAT                  
1 37841U 11058D   19138.67393714  .00000309  00000-0  24409-4 0  9995
2 37841  19.9709 219.0066 0011681 215.6266 277.5754 14.10631736392305
YAOGAN 13               
1 37941U 11072A   19139.84333656  .00000598  00000-0  32763-4 0  9993
2 37941  97.5259  71.8326 0002288  35.1756  50.1193 15.17979163414105
PLEIADES 1A             
1 38012U 11076F   19139.79424985 -.00000003  00000-0  90802-5 0  9998
2 38012  98.1989 214.8929 0001045  79.4211 280.7099 14.58555460395138
ZIYUAN 1-02C (ZY 1-02C) 
1 38038U 11079A   19139.84262799  .00000033  00000-0  25701-4 0  9995
2 38038  98.2429 186.9652 0001383 107.4767 252.6560 14.35497047388168
